NORAD_CAT_ID,OBJECT_NAME,OBJECT_TYPE,EPOCH,MEAN_MOTION,ECCENTRICITY,INCLINATION,RA_OF_ASC_NODE,ARG_OF_PERICENTER,MEAN_ANOMALY,BSTAR,MEAN_MOTION_DOT,MEAN_MOTION_DDOT,TLE_LINE0,TLE_LINE1,TLE_LINE2,SEMIMAJOR_AXIS,PERIOD,APOGEE,PERIGEE,DECAYED
49724.0,STARLINK-3219,PAYLOAD,2024-08-17 04:29:32,15.08841313,0.0001303,53.2166,185.9431,106.0795,254.0341,-3.9087e-06,-3.5e-06,0.0,0 STARLINK-3219,1 49724U 21115A   24230.18718238 -.00000350  00000-0 -39087-5 0  9997,2 49724  53.2166 185.9431 0001303 106.0795 254.0341 15.08841313150668,6917.876,95.437,540.643,538.84,0.0
49724.0,STARLINK-3219,PAYLOAD,2024-08-18 02:44:56,15.0884112,0.0001369,53.2158,181.778,101.6797,258.4349,0.00010231,1.341e-05,0.0,0 STARLINK-3219,1 49724U 21115A   24231.11454003  .00001341  00000-0  10231-3 0  9995,2 49724  53.2158 181.7780 0001369 101.6797 258.4349 15.08841120149698,6917.877,95.437,540.689,538.795,0.0
49724.0,STARLINK-3219,PAYLOAD,2024-08-18 05:55:42,15.08843983,0.0001392,53.2161,181.1834,101.4133,258.7015,0.00012416,1.689e-05,0.0,0 STARLINK-3219,1 49724U 21115A   24231.24701764  .00001689  00000-0  12416-3 0  9990,2 49724  53.2161 181.1834 0001392 101.4133 258.7015 15.08843983150823,6917.868,95.437,540.696,538.77,0.0
49724.0,STARLINK-3219,PAYLOAD,2024-08-19 04:11:06,15.08837563,0.0001612,53.2172,177.0161,82.8371,277.2804,7.1892e-05,8.56e-06,0.0,0 STARLINK-3219,1 49724U 21115A   24232.17438459  .00000856  00000-0  71892-4 0  9990,2 49724  53.2172 177.0161 0001612  82.8371 277.2804 15.08837563150967,6917.888,95.438,540.868,538.638,0.0
49724.0,STARLINK-3219,PAYLOAD,2024-08-19 13:43:25,15.08844126,0.0001495,53.2167,175.2343,89.7162,270.4002,0.00010464,1.378e-05,0.0,0 STARLINK-3219,1 49724U 21115A   24232.57181887  .00001378  00000-0  10464-3 0  9991,2 49724  53.2167 175.2343 0001495  89.7162 270.4002 15.08844126149917,6917.868,95.437,540.767,538.699,0.0
49724.0,STARLINK-3219,PAYLOAD,2024-08-20 05:37:16,15.08843584,0.000144,53.2169,172.2599,97.3306,262.785,7.5349e-05,9.12e-06,0.0,0 STARLINK-3219,1 49724U 21115A   24233.23421987  .00000912  00000-0  75349-4 0  9990,2 49724  53.2169 172.2599 0001440  97.3306 262.7850 15.08843584151122,6917.869,95.437,540.731,538.738,0.0
49724.0,STARLINK-3219,PAYLOAD,2024-08-21 02:17:17,15.08839187,0.0001459,53.2165,168.3935,103.1408,256.9747,3.5952e-05,2.84e-06,0.0,0 STARLINK-3219,1 49724U 21115A   24234.09534345  .00000284  00000-0  35952-4 0  9996,2 49724  53.2165 168.3935 0001459 103.1408 256.9747 15.08839187151255,6917.883,95.438,540.757,538.739,0.0
49724.0,STARLINK-3219,PAYLOAD,2024-08-21 05:28:03,15.08841082,0.0001482,53.2164,167.7985,109.9662,250.1489,4.6525e-05,4.53e-06,0.0,0 STARLINK-3219,1 49724U 21115A   24234.22782195  .00000453  00000-0  46525-4 0  9995,2 49724  53.2164 167.7985 0001482 109.9662 250.1489 15.08841082150169,6917.877,95.437,540.767,538.717,0.0
49724.0,STARLINK-3219,PAYLOAD,2024-08-21 22:57:16,15.08905482,0.0001814,53.2162,164.5268,85.6324,274.4875,-0.00091291,-0.00014814,0.0,0 STARLINK-3219,1 49724U 21115A   24234.95644176 -.00014814  00000-0 -91291-3 0  9998,2 49724  53.2162 164.5268 0001814  85.6324 274.4875 15.08905482151388,6917.68,95.433,540.8,538.29,0.0
